start=new Date('2021-12-29T00:00:00.000Z').valueOf();
sats=[{"ECCENTRICITY":"0.00060850","MEAN_MOTION":"15.76723830","OBJECT_ID":"2020-012BF","BSTAR":"0.00000671740000","MEAN_ELEMENT_THEORY":"SGP4","CLASSIFICATION_TYPE":"U","ARG_OF_PERICENTER":"324.4171","ELEMENT_SET_NO":"999","GP_ID":"192637600","CENTER_NAME":"EARTH","APOAPSIS":"343.820","EPHEMERIS_TYPE":"0","MEAN_MOTION_DDOT":"0.0000000000000","DECAY_DATE":null,"SITE":"AFETR","FILE":"3253660","COUNTRY_CODE":"US","INCLINATION":"53.0322","EPOCH":"2021-12-28T06:12:25.953408","SEMIMAJOR_AXIS":"6717.867","TLE_LINE2":"2 45231  53.0322 317.6411 0006085 324.4171  35.6441 15.76723830105535","NORAD_CAT_ID":"45231","TIME_SYSTEM":"UTC","OBJECT_NAME":"STARLINK-1229","TLE_LINE1":"1 45231U 20012BF  21362.25863372  .00000436  00000-0  67174-5 0  9993","RA_OF_ASC_NODE":"317.6411","RCS_SIZE":"LARGE","PERIOD":"91.329","MEAN_MOTION_DOT":"0.00000436","LAUNCH_DATE":"2020-02-17","PERIAPSIS":"335.644","REF_FRAME":"TEME","OBJECT_TYPE":"PAYLOAD","MEAN_ANOMALY":"35.6441","REV_AT_EPOCH":"10553"},{"CENTER_NAME":"EARTH","APOAPSIS":"548.331","EPHEMERIS_TYPE":"0","GP_ID":"192673115","ARG_OF_PERICENTER":"75.8351","CLASSIFICATION_TYPE":"U","ELEMENT_SET_NO":"999","BSTAR":"0.00018409000000","MEAN_ELEMENT_THEORY":"SGP4","ECCENTRICITY":"0.00016180","MEAN_MOTION":"15.06401135","OBJECT_ID":"2020-012BG","COUNTRY_CODE":"US","SITE":"AFETR","FILE":"3254265","DECAY_DATE":null,"MEAN_MOTION_DDOT":"0.0000000000000","TLE_LINE1":"1 45232U 20012BG  21362.62401420  .00002462  00000-0  18409-3 0  9993","RA_OF_ASC_NODE":"44.3239","RCS_SIZE":"LARGE","TIME_SYSTEM":"UTC","OBJECT_NAME":"STARLINK-1235","SEMIMAJOR_AXIS":"6925.345","TLE_LINE2":"2 45232  53.0547  44.3239 0001618  75.8351 284.2817 15.06401135104487","NORAD_CAT_ID":"45232","EPOCH":"2021-12-28T14:58:34.826880","INCLINATION":"53.0547","REV_AT_EPOCH":"10448","MEAN_ANOMALY":"284.2817","REF_FRAME":"TEME","OBJECT_TYPE":"PAYLOAD","PERIAPSIS":"546.090","LAUNCH_DATE":"2020-02-17","PERIOD":"95.592","MEAN_MOTION_DOT":"0.00002462"},{"MEAN_ANOMALY":"264.3209","REV_AT_EPOCH":"10417","PERIOD":"95.592","MEAN_MOTION_DOT":"0.00004335","PERIAPSIS":"546.314","LAUNCH_DATE":"2020-02-17","REF_FRAME":"TEME","OBJECT_TYPE":"PAYLOAD","TLE_LINE2":"2 45233  53.0557  64.7151 0001269  95.7924 264.3209 15.06406625104176","NORAD_CAT_ID":"45233","SEMIMAJOR_AXIS":"6925.328","OBJECT_NAME":"STARLINK-1238","TIME_SYSTEM":"UTC","TLE_LINE1":"1 45233U 20012BH  21362.53738219  .00004335  00000-0  30971-3 0  9992","RA_OF_ASC_NODE":"64.7151","RCS_SIZE":"LARGE","INCLINATION":"53.0557","EPOCH":"2021-12-28T12:53:49.821216","SITE":"AFETR","FILE":"3253660","COUNTRY_CODE":"US","MEAN_MOTION_DDOT":"0.0000000000000","DECAY_DATE":null,"CLASSIFICATION_TYPE":"U","ARG_OF_PERICENTER":"95.7924","ELEMENT_SET_NO":"999","GP_ID":"192638102","APOAPSIS":"548.072","CENTER_NAME":"EARTH","EPHEMERIS_TYPE":"0","ECCENTRICITY":"0.00012690","OBJECT_ID":"2020-012BH","MEAN_MOTION":"15.06406625","BSTAR":"0.00030971000000","MEAN_ELEMENT_THEORY":"SGP4"},{"ECCENTRICITY":"0.00011160","MEAN_MOTION":"15.06403268","OBJECT_ID":"2020-012BJ","BSTAR":"0.00015922000000","MEAN_ELEMENT_THEORY":"SGP4","GP_ID":"192672114","CLASSIFICATION_TYPE":"U","ARG_OF_PERICENTER":"91.1724","ELEMENT_SET_NO":"999","CENTER_NAME":"EARTH","APOAPSIS":"547.976","EPHEMERIS_TYPE":"0","DECAY_DATE":null,"MEAN_MOTION_DDOT":"0.0000000000000","SITE":"AFETR","FILE":"3254265","COUNTRY_CODE":"US","INCLINATION":"53.0530","EPOCH":"2021-12-28T17:00:38.677536","TIME_SYSTEM":"UTC","OBJECT_NAME":"STARLINK-1243","SEMIMAJOR_AXIS":"6925.339","TLE_LINE2":"2 45234  53.0530  83.9391 0001116  91.1724 268.9393 15.06403268103900","NORAD_CAT_ID":"45234","TLE_LINE1":"1 45234U 20012BJ  21362.70878099  .00002091  00000-0  15922-3 0  9999","RA_OF_ASC_NODE":"83.9391","RCS_SIZE":"LARGE","LAUNCH_DATE":"2020-02-17","PERIAPSIS":"546.431","PERIOD":"95.592","MEAN_MOTION_DOT":"0.00002091","REF_FRAME":"TEME","OBJECT_TYPE":"PAYLOAD","MEAN_ANOMALY":"268.9393","REV_AT_EPOCH":"10390"},{"MEAN_MOTION_DDOT":"0.0000000000000","DECAY_DATE":null,"COUNTRY_CODE":"US","SITE":"AFETR","FILE":"3254265","MEAN_ELEMENT_THEORY":"SGP4","BSTAR":"0.00025964000000","OBJECT_ID":"2020-012BK","MEAN_MOTION":"15.06401010","ECCENTRICITY":"0.00012280","EPHEMERIS_TYPE":"0","CENTER_NAME":"EARTH","APOAPSIS":"548.061","ELEMENT_SET_NO":"999","ARG_OF_PERICENTER":"84.1065","CLASSIFICATION_TYPE":"U","GP_ID":"192672864","OBJECT_TYPE":"PAYLOAD","REF_FRAME":"TEME","MEAN_MOTION_DOT":"0.00003588","PERIOD":"95.592","PERIAPSIS":"546.360","LAUNCH_DATE":"2020-02-17","REV_AT_EPOCH":"10394","MEAN_ANOMALY":"276.0064","EPOCH":"2021-12-28T15:03:52.662240","INCLINATION":"53.0548","RCS_SIZE":"LARGE","TLE_LINE1":"1 45235U 20012BK  21362.62769285  .00003588  00000-0  25964-3 0  9996","RA_OF_ASC_NODE":"84.3229","SEMIMAJOR_AXIS":"6925.345","TLE_LINE2":"2 45235  53.0548  84.3229 0001228  84.1065 276.0064 15.06401010103941","NORAD_CAT_ID":"45235","OBJECT_NAME":"STARLINK-1246","TIME_SYSTEM":"UTC"},{"REV_AT_EPOCH":"10447","MEAN_ANOMALY":"276.9795","OBJECT_TYPE":"PAYLOAD","REF_FRAME":"TEME","MEAN_MOTION_DOT":"0.00000379","PERIOD":"95.592","PERIAPSIS":"546.473","LAUNCH_DATE":"2020-02-17","RCS_SIZE":"LARGE","RA_OF_ASC_NODE":"44.3937","TLE_LINE1":"1 45236U 20012BL  21362.60926705  .00000379  00000-0  44344-4 0  9996","TLE_LINE2":"2 45236  53.0548  44.3937 0001089  83.1317 276.9795 15.06395684104476","SEMIMAJOR_AXIS":"6925.362","NORAD_CAT_ID":"45236","OBJECT_NAME":"STARLINK-1247","TIME_SYSTEM":"UTC","EPOCH":"2021-12-28T14:37:20.673120","INCLINATION":"53.0548","COUNTRY_CODE":"US","SITE":"AFETR","FILE":"3254265","MEAN_MOTION_DDOT":"0.0000000000000","DECAY_DATE":null,"EPHEMERIS_TYPE":"0","APOAPSIS":"547.981","CENTER_NAME":"EARTH","ELEMENT_SET_NO":"999","CLASSIFICATION_TYPE":"U","ARG_OF_PERICENTER":"83.1317","GP_ID":"192673616","MEAN_ELEMENT_THEORY":"SGP4","BSTAR":"0.00004434400000","OBJECT_ID":"2020-012BL","MEAN_MOTION":"15.06395684","ECCENTRICITY":"0.00010890"},{"ELEMENT_SET_NO":"999","ARG_OF_PERICENTER":"91.2244","CLASSIFICATION_TYPE":"U","GP_ID":"192652083","EPHEMERIS_TYPE":"0","CENTER_NAME":"EARTH","APOAPSIS":"548.196","OBJECT_ID":"2020-012BM","MEAN_MOTION":"15.06391199","ECCENTRICITY":"0.00013790","BSTAR":"0.00000534250000","MEAN_ELEMENT_THEORY":"SGP4","SITE":"AFETR","FILE":"3254207","COUNTRY_CODE":"US","MEAN_MOTION_DDOT":"0.0000000000000","DECAY_DATE":null,"NORAD_CAT_ID":"45237","TLE_LINE2":"2 45237  53.0560  45.2016 0001379  91.2244 268.8903 15.06391199103512","SEMIMAJOR_AXIS":"6925.376","OBJECT_NAME":"STARLINK-1270","TIME_SYSTEM":"UTC","RCS_SIZE":"LARGE","RA_OF_ASC_NODE":"45.2016","TLE_LINE1":"1 45237U 20012BM  21362.43234548 -.00000202  00000-0  53425-5 0  9992","INCLINATION":"53.0560","EPOCH":"2021-12-28T10:22:34.649472","MEAN_ANOMALY":"268.8903","REV_AT_EPOCH":"10351","MEAN_MOTION_DOT":"-0.00000202","PERIOD":"95.593","LAUNCH_DATE":"2020-02-17","PERIAPSIS":"546.286","OBJECT_TYPE":"PAYLOAD","REF_FRAME":"TEME"},{"INCLINATION":"53.0545","EPOCH":"2021-12-28T20:31:39.483840","TIME_SYSTEM":"UTC","OBJECT_NAME":"STARLINK-1279","TLE_LINE2":"2 45360  53.0545 173.2895 0001826  90.0223 270.0975 15.06404997 99250","NORAD_CAT_ID":"45360","SEMIMAJOR_AXIS":"6925.333","TLE_LINE1":"1 45360U 20019A   21362.85531810 -.00000488  00000-0 -13827-4 0  9992","RA_OF_ASC_NODE":"173.2895","RCS_SIZE":"LARGE","PERIAPSIS":"545.934","LAUNCH_DATE":"2020-03-18","PERIOD":"95.592","MEAN_MOTION_DOT":"-0.00000488","REF_FRAME":"TEME","OBJECT_TYPE":"PAYLOAD","MEAN_ANOMALY":"270.0975","REV_AT_EPOCH":"9925","ECCENTRICITY":"0.00018260","MEAN_MOTION":"15.06404997","OBJECT_ID":"2020-019A","BSTAR":"-0.00001382700000","MEAN_ELEMENT_THEORY":"SGP4","GP_ID":"192672128","CLASSIFICATION_TYPE":"U","ARG_OF_PERICENTER":"90.0223","ELEMENT_SET_NO":"999","CENTER_NAME":"EARTH","APOAPSIS":"548.463","EPHEMERIS_TYPE":"0","DECAY_DATE":null,"MEAN_MOTION_DDOT":"0.0000000000000","SITE":"AFETR","FILE":"3254265","COUNTRY_CODE":"US"},{"OBJECT_TYPE":"PAYLOAD","REF_FRAME":"TEME","PERIAPSIS":"545.527","LAUNCH_DATE":"2020-03-18","MEAN_MOTION_DOT":"0.00001401","PERIOD":"95.593","REV_AT_EPOCH":"9911","MEAN_ANOMALY":"273.4950","EPOCH":"2021-12-28T18:38:52.713600","INCLINATION":"53.0534","RCS_SIZE":"LARGE","TLE_LINE1":"1 45361U 20019B   21362.77699900  .00001401  00000-0  11300-3 0  9996","RA_OF_ASC_NODE":"183.6415","OBJECT_NAME":"STARLINK-1301","TIME_SYSTEM":"UTC","NORAD_CAT_ID":"45361","TLE_LINE2":"2 45361  53.0534 183.6415 0002480  86.6323 273.4950 15.06390046 99115","SEMIMAJOR_AXIS":"6925.379","DECAY_DATE":null,"MEAN_MOTION_DDOT":"0.0000000000000","COUNTRY_CODE":"US","FILE":"3254265","SITE":"AFETR","BSTAR":"0.00011300000000","MEAN_ELEMENT_THEORY":"SGP4","OBJECT_ID":"2020-019B","MEAN_MOTION":"15.06390046","ECCENTRICITY":"0.00024800","EPHEMERIS_TYPE":"0","APOAPSIS":"548.962","CENTER_NAME":"EARTH","GP_ID":"192672878","ELEMENT_SET_NO":"999","CLASSIFICATION_TYPE":"U","ARG_OF_PERICENTER":"86.6323"},{"TLE_LINE1":"1 45362U 20019C   21362.82305487  .00002530  00000-0  18870-3 0  9990","RA_OF_ASC_NODE":"203.4349","RCS_SIZE":"LARGE","OBJECT_NAME":"STARLINK-1306","TIME_SYSTEM":"UTC","TLE_LINE2":"2 45362  53.0524 203.4349 0002370  75.0797 285.0454 15.06402611 98835","NORAD_CAT_ID":"45362","SEMIMAJOR_AXIS":"6925.341","EPOCH":"2021-12-28T19:45:11.940768","INCLINATION":"53.0524","REV_AT_EPOCH":"9883","MEAN_ANOMALY":"285.0454","REF_FRAME":"TEME","OBJECT_TYPE":"PAYLOAD","PERIAPSIS":"545.564","LAUNCH_DATE":"2020-03-18","PERIOD":"95.592","MEAN_MOTION_DOT":"0.00002530","CENTER_NAME":"EARTH","APOAPSIS":"548.847","EPHEMERIS_TYPE":"0","GP_ID":"192673630","CLASSIFICATION_TYPE":"U","ARG_OF_PERICENTER":"75.0797","ELEMENT_SET_NO":"999","BSTAR":"0.00018870000000","MEAN_ELEMENT_THEORY":"SGP4","ECCENTRICITY":"0.00023700","OBJECT_ID":"2020-019C","MEAN_MOTION":"15.06402611","COUNTRY_CODE":"US","SITE":"AFETR","FILE":"3254265","DECAY_DATE":null,"MEAN_MOTION_DDOT":"0.0000000000000"}];
